STARLINK-36455          
1 67418U 26005Q   26035.25004630 -.00078214  00000+0 -13398-2 0  9994
2 67418  43.0000  69.7923 0001409 271.5040 252.3679 15.50598412  4811
STARLINK-36424          
1 67419U 26005R   26035.25004630  .00040630  00000+0  69606-3 0  9998
2 67419  43.0000  69.7880 0001340 263.1978 262.6161 15.50527615  4812
STARLINK-35564          
1 67420U 26005S   26035.25004630 -.00086595  00000+0 -14853-2 0  9995
2 67420  43.0000  69.7826 0001486 270.8596 256.8460 15.50602986  4706
STARLINK-36431          
1 67421U 26005T   26035.25004630 -.01693152  00000+0 -41233-1 0  9991
2 67421  43.0002  69.8265 0001389 279.1475 231.6842 15.43604566  4609
STARLINK-36418          
1 67422U 26005U   26035.25004630  .00039088  00000+0  66993-3 0  9993
2 67422  43.0000  69.7732 0001210 260.6311 270.9303 15.50530417  4769
STARLINK-36465          
1 67423U 26005V   26035.25004630 -.02054004  00000+0 -45601-1 0  9994
2 67423  43.0001  69.7866 0001059 275.0734 251.3486 15.46396007  4551
STARLINK-36362          
1 67424U 26005W   26035.25004630 -.02089268  00000+0 -41956-1 0  9994
2 67424  43.0000  69.7653 0000904 265.6918 269.0257 15.49304563  4812
STARLINK-36447          
1 67425U 26005X   26035.25004630 -.00326375  00000+0 -57683-2 0  9991
2 67425  42.9997  69.7589 0001075 265.5357 271.7282 15.50697236  4812
STARLINK-36146          
1 67426U 26005Y   26035.25004630  .00074134  00000+0  12601-2 0  9994
2 67426  43.0000  69.7544 0001519 265.6274 273.6011 15.50521287  4760
STARLINK-36459          
1 67427U 26005Z   26035.25004630  .00056071  00000+0  95660-3 0  9992
2 67427  43.0001  69.7489 0001567 265.1980 275.9505 15.50524226  4738
STARLINK-36464          
1 67428U 26005AA  26035.25004630  .00038376  00000+0  65789-3 0  9990
2 67428  43.0000  69.7390 0001452 267.8201 277.1633 15.50530477  4817
STARLINK-36513          
1 67429U 26005AB  26035.25004630  .00038800  00000+0  66502-3 0  9997
2 67429  43.0000  69.7337 0000935 258.4947 288.4008 15.50531941  4815
